ATLAS CENTAUR R/B       
1 06155U 72065B   25358.14813468  .00001129  00000+0  15799-3 0  9991
2 06155  35.0025  28.3690 0033215  94.9103 265.5391 14.77437332830083
SL-8 R/B                
1 08459U 75112B   25357.75178224  .00000337  00000+0  11958-3 0  9999
2 08459  74.0591 158.6024 0016684 268.8017  91.1225 14.38152918620951
SL-3 R/B                
1 10114U 77057B   25358.10439608  .00013003  00000+0  29464-3 0  9991
2 10114  97.5692 161.8772 0007209 187.6673 172.4465 15.43212362656662
SEASAT 1                
1 10967U 78064A   25357.81972852  .00000340  00000+0  13363-3 0  9997
2 10967 108.0137 326.2804 0001371 254.6705 105.4289 14.46072663495546
SL-14 R/B               
1 11267U 79011B   25357.85554417  .00000652  00000+0  62072-4 0  9999
2 11267  82.5234 168.5014 0014964 314.8323  45.1680 14.91782708517471
SL-8 R/B                
1 11574U 79089B   25358.07299509  .00000236  00000+0  79512-4 0  9993
2 11574  74.0676 231.0039 0014689  60.6641 299.5981 14.42290571425200
SL-14 R/B               
1 11672U 80005B   25358.08730316  .00000554  00000+0  53615-4 0  9998
2 11672  82.5140  18.9365 0017134  58.9377 301.3521 14.90804286465222
SL-8 R/B                
1 12139U 81003B   25358.09053100  .00016954  00000+0  44837-3 0  9992
2 12139  82.9335 359.7576 0277993  81.2662 281.9942 15.07362829303275
SL-3 R/B                
1 12465U 81046B   25358.13220189  .00011562  00000+0  28894-3 0  9994
2 12465  81.2319  20.3062 0018167 282.6944  77.2266 15.39833953426792
SL-3 R/B                
1 12904U 81103B   25358.11222642  .00006359  00000+0  29049-3 0  9991
2 12904  81.1606 302.0337 0012666 172.9183 187.2230 15.20362526961742
SL-3 R/B                
1 13068U 82013B   25358.15508115  .00004457  00000+0  19728-3 0  9990
2 13068  81.1743 249.2478 0024084  74.3387 286.0499 15.21182432392865
SL-3 R/B                
1 13154U 82039B   25358.10662579  .00003250  00000+0  19896-3 0  9990
2 13154  81.1715 303.0195 0029407 213.6171 146.3190 15.09587240370233
