CCSDS_OMM_VERS = 2.0
CREATION_DATE  = 
ORIGINATOR     = 

OBJECT_NAME    = ATLAS CENTAUR R/B
OBJECT_ID      = 1972-065B
CENTER_NAME    = EARTH
REF_FRAME      = TEME
TIME_SYSTEM    = UTC
MEAN_ELEMENT_THEORY = SGP/SGP4

EPOCH          = 2025-12-24T03:33:18.836352
MEAN_MOTION    = 14.77437332
ECCENTRICITY   = .0033215
INCLINATION    = 35.0025
RA_OF_ASC_NODE = 28.3690
ARG_OF_PERICENTER = 94.9103
MEAN_ANOMALY   = 265.5391

EPHEMERIS_TYPE = 0
CLASSIFICATION_TYPE = U
NORAD_CAT_ID   = 6155
ELEMENT_SET_NO = 999
REV_AT_EPOCH   = 83008
BSTAR          = .15799E-3
MEAN_MOTION_DOT = .1129E-4
MEAN_MOTION_DDOT = 0

CCSDS_OMM_VERS = 2.0
CREATION_DATE  = 
ORIGINATOR     = 

OBJECT_NAME    = SL-8 R/B
OBJECT_ID      = 1975-112B
CENTER_NAME    = EARTH
REF_FRAME      = TEME
TIME_SYSTEM    = UTC
MEAN_ELEMENT_THEORY = SGP/SGP4

EPOCH          = 2025-12-23T18:02:33.985536
MEAN_MOTION    = 14.38152918
ECCENTRICITY   = .00166844
INCLINATION    = 74.0591
RA_OF_ASC_NODE = 158.6024
ARG_OF_PERICENTER = 268.8017
MEAN_ANOMALY   = 91.1225

EPHEMERIS_TYPE = 0
CLASSIFICATION_TYPE = U
NORAD_CAT_ID   = 8459
ELEMENT_SET_NO = 999
REV_AT_EPOCH   = 62095
BSTAR          = .11957992E-3
MEAN_MOTION_DOT = .337E-5
MEAN_MOTION_DDOT = 0

CCSDS_OMM_VERS = 2.0
CREATION_DATE  = 
ORIGINATOR     = 

OBJECT_NAME    = SL-3 R/B
OBJECT_ID      = 1977-057B
CENTER_NAME    = EARTH
REF_FRAME      = TEME
TIME_SYSTEM    = UTC
MEAN_ELEMENT_THEORY = SGP/SGP4

EPOCH          = 2025-12-24T02:30:19.821312
MEAN_MOTION    = 15.43212362
ECCENTRICITY   = .0007209
INCLINATION    = 97.5692
RA_OF_ASC_NODE = 161.8772
ARG_OF_PERICENTER = 187.6673
MEAN_ANOMALY   = 172.4465

EPHEMERIS_TYPE = 0
CLASSIFICATION_TYPE = U
NORAD_CAT_ID   = 10114
ELEMENT_SET_NO = 999
REV_AT_EPOCH   = 65666
BSTAR          = .29464E-3
MEAN_MOTION_DOT = .13003E-3
MEAN_MOTION_DDOT = 0

CCSDS_OMM_VERS = 2.0
CREATION_DATE  = 
ORIGINATOR     = 

OBJECT_NAME    = SEASAT 1
OBJECT_ID      = 1978-064A
CENTER_NAME    = EARTH
REF_FRAME      = TEME
TIME_SYSTEM    = UTC
MEAN_ELEMENT_THEORY = SGP/SGP4

EPOCH          = 2025-12-23T19:40:24.544128
MEAN_MOTION    = 14.46072663
ECCENTRICITY   = .0001371
INCLINATION    = 108.0137
RA_OF_ASC_NODE = 326.2804
ARG_OF_PERICENTER = 254.6705
MEAN_ANOMALY   = 105.4289

EPHEMERIS_TYPE = 0
CLASSIFICATION_TYPE = U
NORAD_CAT_ID   = 10967
ELEMENT_SET_NO = 999
REV_AT_EPOCH   = 49554
BSTAR          = .13363E-3
MEAN_MOTION_DOT = .34E-5
MEAN_MOTION_DDOT = 0

CCSDS_OMM_VERS = 2.0
CREATION_DATE  = 
ORIGINATOR     = 

OBJECT_NAME    = SL-14 R/B
OBJECT_ID      = 1979-011B
CENTER_NAME    = EARTH
REF_FRAME      = TEME
TIME_SYSTEM    = UTC
MEAN_ELEMENT_THEORY = SGP/SGP4

EPOCH          = 2025-12-23T20:31:59.016288
MEAN_MOTION    = 14.91782708
ECCENTRICITY   = .0014964
INCLINATION    = 82.5234
RA_OF_ASC_NODE = 168.5014
ARG_OF_PERICENTER = 314.8323
MEAN_ANOMALY   = 45.1680

EPHEMERIS_TYPE = 0
CLASSIFICATION_TYPE = U
NORAD_CAT_ID   = 11267
ELEMENT_SET_NO = 999
REV_AT_EPOCH   = 51747
BSTAR          = .62072E-4
MEAN_MOTION_DOT = .652E-5
MEAN_MOTION_DDOT = 0

CCSDS_OMM_VERS = 2.0
CREATION_DATE  = 
ORIGINATOR     = 

OBJECT_NAME    = SL-8 R/B
OBJECT_ID      = 1979-089B
CENTER_NAME    = EARTH
REF_FRAME      = TEME
TIME_SYSTEM    = UTC
MEAN_ELEMENT_THEORY = SGP/SGP4

EPOCH          = 2025-12-24T01:45:06.775776
MEAN_MOTION    = 14.42290571
ECCENTRICITY   = .0014689
INCLINATION    = 74.0676
RA_OF_ASC_NODE = 231.0039
ARG_OF_PERICENTER = 60.6641
MEAN_ANOMALY   = 299.5981

EPHEMERIS_TYPE = 0
CLASSIFICATION_TYPE = U
NORAD_CAT_ID   = 11574
ELEMENT_SET_NO = 999
REV_AT_EPOCH   = 42520
BSTAR          = .79512E-4
MEAN_MOTION_DOT = .236E-5
MEAN_MOTION_DDOT = 0

CCSDS_OMM_VERS = 2.0
CREATION_DATE  = 
ORIGINATOR     = 

OBJECT_NAME    = SL-14 R/B
OBJECT_ID      = 1980-005B
CENTER_NAME    = EARTH
REF_FRAME      = TEME
TIME_SYSTEM    = UTC
MEAN_ELEMENT_THEORY = SGP/SGP4

EPOCH          = 2025-12-24T02:05:42.993024
MEAN_MOTION    = 14.90804286
ECCENTRICITY   = .0017134
INCLINATION    = 82.5140
RA_OF_ASC_NODE = 18.9365
ARG_OF_PERICENTER = 58.9377
MEAN_ANOMALY   = 301.3521

EPHEMERIS_TYPE = 0
CLASSIFICATION_TYPE = U
NORAD_CAT_ID   = 11672
ELEMENT_SET_NO = 999
REV_AT_EPOCH   = 46522
BSTAR          = .53615E-4
MEAN_MOTION_DOT = .554E-5
MEAN_MOTION_DDOT = 0

CCSDS_OMM_VERS = 2.0
CREATION_DATE  = 
ORIGINATOR     = 

OBJECT_NAME    = SL-8 R/B
OBJECT_ID      = 1981-003B
CENTER_NAME    = EARTH
REF_FRAME      = TEME
TIME_SYSTEM    = UTC
MEAN_ELEMENT_THEORY = SGP/SGP4

EPOCH          = 2025-12-24T02:10:21.878400
MEAN_MOTION    = 15.07362829
ECCENTRICITY   = .0277993
INCLINATION    = 82.9335
RA_OF_ASC_NODE = 359.7576
ARG_OF_PERICENTER = 81.2662
MEAN_ANOMALY   = 281.9942

EPHEMERIS_TYPE = 0
CLASSIFICATION_TYPE = U
NORAD_CAT_ID   = 12139
ELEMENT_SET_NO = 999
REV_AT_EPOCH   = 30327
BSTAR          = .44837E-3
MEAN_MOTION_DOT = .16954E-3
MEAN_MOTION_DDOT = 0

CCSDS_OMM_VERS = 2.0
CREATION_DATE  = 
ORIGINATOR     = 

OBJECT_NAME    = SL-3 R/B
OBJECT_ID      = 1981-046B
CENTER_NAME    = EARTH
REF_FRAME      = TEME
TIME_SYSTEM    = UTC
MEAN_ELEMENT_THEORY = SGP/SGP4

EPOCH          = 2025-12-24T03:10:22.243296
MEAN_MOTION    = 15.39833953
ECCENTRICITY   = .0018167
INCLINATION    = 81.2319
RA_OF_ASC_NODE = 20.3062
ARG_OF_PERICENTER = 282.6944
MEAN_ANOMALY   = 77.2266

EPHEMERIS_TYPE = 0
CLASSIFICATION_TYPE = U
NORAD_CAT_ID   = 12465
ELEMENT_SET_NO = 999
REV_AT_EPOCH   = 42679
BSTAR          = .28894E-3
MEAN_MOTION_DOT = .11562E-3
MEAN_MOTION_DDOT = 0

CCSDS_OMM_VERS = 2.0
CREATION_DATE  = 
ORIGINATOR     = 

OBJECT_NAME    = SL-3 R/B
OBJECT_ID      = 1981-103B
CENTER_NAME    = EARTH
REF_FRAME      = TEME
TIME_SYSTEM    = UTC
MEAN_ELEMENT_THEORY = SGP/SGP4

EPOCH          = 2025-12-24T02:41:36.362688
MEAN_MOTION    = 15.20362526
ECCENTRICITY   = .0012666
INCLINATION    = 81.1606
RA_OF_ASC_NODE = 302.0337
ARG_OF_PERICENTER = 172.9183
MEAN_ANOMALY   = 187.2230

EPHEMERIS_TYPE = 0
CLASSIFICATION_TYPE = U
NORAD_CAT_ID   = 12904
ELEMENT_SET_NO = 999
REV_AT_EPOCH   = 96174
BSTAR          = .29049E-3
MEAN_MOTION_DOT = .6359E-4
MEAN_MOTION_DDOT = 0

CCSDS_OMM_VERS = 2.0
CREATION_DATE  = 
ORIGINATOR     = 

OBJECT_NAME    = SL-3 R/B
OBJECT_ID      = 1982-013B
CENTER_NAME    = EARTH
REF_FRAME      = TEME
TIME_SYSTEM    = UTC
MEAN_ELEMENT_THEORY = SGP/SGP4

EPOCH          = 2025-12-24T03:43:19.011360
MEAN_MOTION    = 15.21182432
ECCENTRICITY   = .0024084
INCLINATION    = 81.1743
RA_OF_ASC_NODE = 249.2478
ARG_OF_PERICENTER = 74.3387
MEAN_ANOMALY   = 286.0499

EPHEMERIS_TYPE = 0
CLASSIFICATION_TYPE = U
NORAD_CAT_ID   = 13068
ELEMENT_SET_NO = 999
REV_AT_EPOCH   = 39286
BSTAR          = .19728E-3
MEAN_MOTION_DOT = .4457E-4
MEAN_MOTION_DDOT = 0

CCSDS_OMM_VERS = 2.0
CREATION_DATE  = 
ORIGINATOR     = 

OBJECT_NAME    = SL-3 R/B
OBJECT_ID      = 1982-039B
CENTER_NAME    = EARTH
REF_FRAME      = TEME
TIME_SYSTEM    = UTC
MEAN_ELEMENT_THEORY = SGP/SGP4

EPOCH          = 2025-12-24T02:33:32.468256
MEAN_MOTION    = 15.09587240
ECCENTRICITY   = .0029407
INCLINATION    = 81.1715
RA_OF_ASC_NODE = 303.0195
ARG_OF_PERICENTER = 213.6171
MEAN_ANOMALY   = 146.3190

EPHEMERIS_TYPE = 0
CLASSIFICATION_TYPE = U
NORAD_CAT_ID   = 13154
ELEMENT_SET_NO = 999
REV_AT_EPOCH   = 37023
BSTAR          = .19896E-3
MEAN_MOTION_DOT = .325E-4
MEAN_MOTION_DDOT = 0

